{
  "type": "FeatureCollection",
  "features": [
    {
      "type": "Feature",
      "properties": {
        "norad_id": 64751,
        "name": "PROGRESS-MS 31",
        "group": "stations",
        "lat": -47.81154892413882,
        "lon": 94.08120614372348,
        "alt_km": 421.72760858318907,
        "timestamp": "2025-12-10T04:57:28.381830+00:00",
        "meta_object_name": "PROGRESS-MS 31",
        "meta_object_id": "2025-146A",
        "meta_epoch": "2025-12-09T12:14:10.839552",
        "meta_mean_motion": 15.49447168,
        "meta_eccentricity": 0.00034,
        "meta_inclination": 51.631,
        "meta_ra_of_asc_node": 158.4724,
        "meta_arg_of_pericenter": 223.8185,
        "meta_mean_anomaly": 136.2534,
        "meta_ephemeris_type": 0,
        "meta_classification_type": "U",
        "meta_norad_cat_id": 64751,
        "meta_element_set_no": 999,
        "meta_rev_at_epoch": 675,
        "meta_bstar": 0.00026025969,
        "meta_mean_motion_dot": 0.00014141,
        "meta_mean_motion_ddot": 0,
        "tle_line1": "1 64751U 25146A   25343.50984768  .00014141  00000+0  26026-3 0  9994",
        "tle_line2": "2 64751  51.6310 158.4724 0003400 223.8185 136.2534 15.49447168  6759"
      },
      "geometry": {
        "type": "Point",
        "coordinates": [
          94.08120614372348,
          -47.81154892413882
        ]
      }
    },
    {
      "type": "Feature",
      "properties": {
        "norad_id": 64786,
        "name": "TIANZHOU-9",
        "group": "stations",
        "lat": -33.11935258346636,
        "lon": -15.539481498416407,
        "alt_km": 390.70720361941494,
        "timestamp": "2025-12-10T04:57:28.381844+00:00",
        "meta_object_name": "TIANZHOU-9",
        "meta_object_id": "2025-149A",
        "meta_epoch": "2025-12-09T13:49:14.456064",
        "meta_mean_motion": 15.58965688,
        "meta_eccentricity": 0.00089597,
        "meta_inclination": 41.4682,
        "meta_ra_of_asc_node": 35.9133,
        "meta_arg_of_pericenter": 5.1145,
        "meta_mean_anomaly": 354.9784,
        "meta_ephemeris_type": 0,
        "meta_classification_type": "U",
        "meta_norad_cat_id": 64786,
        "meta_element_set_no": 999,
        "meta_rev_at_epoch": 25530,
        "meta_bstar": 0.00041052725,
        "meta_mean_motion_dot": 0.00032682,
        "meta_mean_motion_ddot": 0,
        "tle_line1": "1 64786U 25149A   25343.57586176  .00032682  00000+0  41053-3 0  9990",
        "tle_line2": "2 64786  41.4682  35.9133 0008959   5.1145 354.9784 15.58965688255305"
      },
      "geometry": {
        "type": "Point",
        "coordinates": [
          -15.539481498416407,
          -33.11935258346636
        ]
      }
    },
    {
      "type": "Feature",
      "properties": {
        "norad_id": 65077,
        "name": "CREW DRAGON 11",
        "group": "stations",
        "lat": -47.81154833468693,
        "lon": 94.08120827417272,
        "alt_km": 421.72760862006453,
        "timestamp": "2025-12-10T04:57:28.381854+00:00",
        "meta_object_name": "CREW DRAGON 11",
        "meta_object_id": "2025-166A",
        "meta_epoch": "2025-12-09T12:14:10.839552",
        "meta_mean_motion": 15.49447168,
        "meta_eccentricity": 0.00034,
        "meta_inclination": 51.631,
        "meta_ra_of_asc_node": 158.4724,
        "meta_arg_of_pericenter": 223.8185,
        "meta_mean_anomaly": 136.2534,
        "meta_ephemeris_type": 0,
        "meta_classification_type": "U",
        "meta_norad_cat_id": 65077,
        "meta_element_set_no": 999,
        "meta_rev_at_epoch": 214,
        "meta_bstar": 0.00026025969,
        "meta_mean_motion_dot": 0.00014141,
        "meta_mean_motion_ddot": 0,
        "tle_line1": "1 65077U 25166A   25343.50984768  .00014141  00000+0  26026-3 0  9998",
        "tle_line2": "2 65077  51.6310 158.4724 0003400 223.8185 136.2534 15.49447168  2140"
      },
      "geometry": {
        "type": "Point",
        "coordinates": [
          94.08120827417272,
          -47.81154833468693
        ]
      }
    },
    {
      "type": "Feature",
      "properties": {
        "norad_id": 65304,
        "name": "DRAGON CRS-33",
        "group": "stations",
        "lat": -47.81154808908194,
        "lon": 94.08120916186002,
        "alt_km": 421.72760863542953,
        "timestamp": "2025-12-10T04:57:28.381864+00:00",
        "meta_object_name": "DRAGON CRS-33",
        "meta_object_id": "2025-186A",
        "meta_epoch": "2025-12-09T12:14:10.839552",
        "meta_mean_motion": 15.49447168,
        "meta_eccentricity": 0.00034,
        "meta_inclination": 51.631,
        "meta_ra_of_asc_node": 158.4724,
        "meta_arg_of_pericenter": 223.8185,
        "meta_mean_anomaly": 136.2534,
        "meta_ephemeris_type": 0,
        "meta_classification_type": "U",
        "meta_norad_cat_id": 65304,
        "meta_element_set_no": 999,
        "meta_rev_at_epoch": 11,
        "meta_bstar": 0.00026025969,
        "meta_mean_motion_dot": 0.00014141,
        "meta_mean_motion_ddot": 0,
        "tle_line1": "1 65304U 25186A   25343.50984768  .00014141  00000+0  26026-3 0  9993",
        "tle_line2": "2 65304  51.6310 158.4724 0003400 223.8185 136.2534 15.49447168   118"
      },
      "geometry": {
        "type": "Point",
        "coordinates": [
          94.08120916186002,
          -47.81154808908194
        ]
      }
    },
    {
      "type": "Feature",
      "properties": {
        "norad_id": 65586,
        "name": "PROGRESS-MS 32",
        "group": "stations",
        "lat": -47.81154759787132,
        "lon": 94.08121093723678,
        "alt_km": 421.72760866615863,
        "timestamp": "2025-12-10T04:57:28.381884+00:00",
        "meta_object_name": "PROGRESS-MS 32",
        "meta_object_id": "2025-204A",
        "meta_epoch": "2025-12-09T12:14:10.839552",
        "meta_mean_motion": 15.49447168,
        "meta_eccentricity": 0.00034,
        "meta_inclination": 51.631,
        "meta_ra_of_asc_node": 158.4724,
        "meta_arg_of_pericenter": 223.8185,
        "meta_mean_anomaly": 136.2534,
        "meta_ephemeris_type": 0,
        "meta_classification_type": "U",
        "meta_norad_cat_id": 65586,
        "meta_element_set_no": 999,
        "meta_rev_at_epoch": 27,
        "meta_bstar": 0.00026025969,
        "meta_mean_motion_dot": 0.00014141,
        "meta_mean_motion_ddot": 0,
        "tle_line1": "1 65586U 25204A   25343.50984768  .00014141  00000+0  26026-3 0  9996",
        "tle_line2": "2 65586  51.6310 158.4724 0003400 223.8185 136.2534 15.49447168   277"
      },
      "geometry": {
        "type": "Point",
        "coordinates": [
          94.08121093723678,
          -47.81154759787132
        ]
      }
    },
    {
      "type": "Feature",
      "properties": {
        "norad_id": 65616,
        "name": "CYGNUS NG-23",
        "group": "stations",
        "lat": -47.811547352266615,
        "lon": 94.08121182492287,
        "alt_km": 421.7276086815209,
        "timestamp": "2025-12-10T04:57:28.381894+00:00",
        "meta_object_name": "CYGNUS NG-23",
        "meta_object_id": "2025-208A",
        "meta_epoch": "2025-12-09T12:14:10.839552",
        "meta_mean_motion": 15.49447168,
        "meta_eccentricity": 0.00034,
        "meta_inclination": 51.631,
        "meta_ra_of_asc_node": 158.4724,
        "meta_arg_of_pericenter": 223.8185,
        "meta_mean_anomaly": 136.2534,
        "meta_ephemeris_type": 0,
        "meta_classification_type": "U",
        "meta_norad_cat_id": 65616,
        "meta_element_set_no": 999,
        "meta_rev_at_epoch": 22,
        "meta_bstar": 0.00026025969,
        "meta_mean_motion_dot": 0.00014141,
        "meta_mean_motion_ddot": 0,
        "tle_line1": "1 65616U 25208A   25343.50984768  .00014141  00000+0  26026-3 0  9994",
        "tle_line2": "2 65616  51.6310 158.4724 0003400 223.8185 136.2534 15.49447168   226"
      },
      "geometry": {
        "type": "Point",
        "coordinates": [
          94.08121182492287,
          -47.811547352266615
        ]
      }
    },
    {
      "type": "Feature",
      "properties": {
        "norad_id": 65729,
        "name": "DRAGONFLY",
        "group": "stations",
        "lat": 46.44209134688594,
        "lon": -154.82650840668606,
        "alt_km": 354.61099589301284,
        "timestamp": "2025-12-10T04:57:28.381904+00:00",
        "meta_object_name": "DRAGONFLY",
        "meta_object_id": "1998-067XH",
        "meta_epoch": "2025-12-09T11:52:26.095872",
        "meta_mean_motion": 15.70499103,
        "meta_eccentricity": 0.00065374,
        "meta_inclination": 51.6245,
        "meta_ra_of_asc_node": 152.3636,
        "meta_arg_of_pericenter": 255.9884,
        "meta_mean_anomaly": 104.0387,
        "meta_ephemeris_type": 0,
        "meta_classification_type": "U",
        "meta_norad_cat_id": 65729,
        "meta_element_set_no": 999,
        "meta_rev_at_epoch": 1265,
        "meta_bstar": 0.0014915016,
        "meta_mean_motion_dot": 0.00190953,
        "meta_mean_motion_ddot": 0,
        "tle_line1": "1 65729U 98067XH  25343.49474648  .00190953  00000+0  14915-2 0  9990",
        "tle_line2": "2 65729  51.6245 152.3636 0006537 255.9884 104.0387 15.70499103 12658"
      },
      "geometry": {
        "type": "Point",
        "coordinates": [
          -154.82650840668606,
          46.44209134688594
        ]
      }
    }
  ]
}